[{"OBJECT_NAME":"ONEWEB-0446","OBJECT_ID":"2022-012U","EPOCH":"2025-08-18T20:54:43.910784","MEAN_MOTION":13.10371309,"ECCENTRICITY":0.0001495,"INCLINATION":87.8769,"RA_OF_ASC_NODE":96.5889,"ARG_OF_PERICENTER":83.4907,"MEAN_ANOMALY":276.639,"EPHEMERIS_TYPE":0,"CLASSIFICATION_TYPE":"U","NORAD_CAT_ID":51640,"ELEMENT_SET_NO":999,"REV_AT_EPOCH":16973,"BSTAR":-0.0004212,"MEAN_MOTION_DOT":-1.34e-6,"MEAN_MOTION_DDOT":0},{"OBJECT_NAME":"ONEWEB-0448","OBJECT_ID":"2022-012V","EPOCH":"2025-08-18T21:01:51.460320","MEAN_MOTION":13.10373244,"ECCENTRICITY":0.0001795,"INCLINATION":87.877,"RA_OF_ASC_NODE":96.5875,"ARG_OF_PERICENTER":81.0235,"MEAN_ANOMALY":279.1096,"EPHEMERIS_TYPE":0,"CLASSIFICATION_TYPE":"U","NORAD_CAT_ID":51641,"ELEMENT_SET_NO":999,"REV_AT_EPOCH":16970,"BSTAR":-0.0012008,"MEAN_MOTION_DOT":-4.06e-6,"MEAN_MOTION_DDOT":0},{"OBJECT_NAME":"ONEWEB-0449","OBJECT_ID":"2022-012W","EPOCH":"2025-08-19T04:28:54.119136","MEAN_MOTION":13.10371033,"ECCENTRICITY":0.000207,"INCLINATION":87.8766,"RA_OF_ASC_NODE":96.4974,"ARG_OF_PERICENTER":90.8869,"MEAN_ANOMALY":269.2495,"EPHEMERIS_TYPE":0,"CLASSIFICATION_TYPE":"U","NORAD_CAT_ID":51642,"ELEMENT_SET_NO":999,"REV_AT_EPOCH":17105,"BSTAR":-0.0014929,"MEAN_MOTION_DOT":-5.08e-6,"MEAN_MOTION_DDOT":0},{"OBJECT_NAME":"ONEWEB-0451","OBJECT_ID":"2022-012X","EPOCH":"2025-08-18T21:45:59.639328","MEAN_MOTION":13.17649742,"ECCENTRICITY":0.00019,"INCLINATION":87.9027,"RA_OF_ASC_NODE":65.9773,"ARG_OF_PERICENTER":91.7071,"MEAN_ANOMALY":268.4278,"EPHEMERIS_TYPE":0,"CLASSIFICATION_TYPE":"U","NORAD_CAT_ID":51643,"ELEMENT_SET_NO":999,"REV_AT_EPOCH":17385,"BSTAR":0.00019819,"MEAN_MOTION_DOT":9.0e-7,"MEAN_MOTION_DDOT":0},{"OBJECT_NAME":"ONEWEB-0452","OBJECT_ID":"2022-012Y","EPOCH":"2025-08-18T21:43:35.414400","MEAN_MOTION":13.176471,"ECCENTRICITY":0.0002059,"INCLINATION":87.902,"RA_OF_ASC_NODE":66.0418,"ARG_OF_PERICENTER":89.6162,"MEAN_ANOMALY":270.5205,"EPHEMERIS_TYPE":0,"CLASSIFICATION_TYPE":"U","NORAD_CAT_ID":51644,"ELEMENT_SET_NO":999,"REV_AT_EPOCH":17386,"BSTAR":0.00041134,"MEAN_MOTION_DOT":1.73e-6,"MEAN_MOTION_DDOT":0},{"OBJECT_NAME":"ONEWEB-0456","OBJECT_ID":"2022-012AA","EPOCH":"2025-08-19T02:53:16.710720","MEAN_MOTION":13.10374877,"ECCENTRICITY":0.0001729,"INCLINATION":87.8778,"RA_OF_ASC_NODE":96.4691,"ARG_OF_PERICENTER":73.9135,"MEAN_ANOMALY":286.2182,"EPHEMERIS_TYPE":0,"CLASSIFICATION_TYPE":"U","NORAD_CAT_ID":51646,"ELEMENT_SET_NO":999,"REV_AT_EPOCH":17107,"BSTAR":-0.0016491,"MEAN_MOTION_DOT":-5.63e-6,"MEAN_MOTION_DDOT":0},{"OBJECT_NAME":"ONEWEB-0457","OBJECT_ID":"2022-012AB","EPOCH":"2025-08-18T15:20:07.026144","MEAN_MOTION":13.10368061,"ECCENTRICITY":0.0001706,"INCLINATION":87.8769,"RA_OF_ASC_NODE":96.6233,"ARG_OF_PERICENTER":94.4967,"MEAN_ANOMALY":265.6355,"EPHEMERIS_TYPE":0,"CLASSIFICATION_TYPE":"U","NORAD_CAT_ID":51647,"ELEMENT_SET_NO":999,"REV_AT_EPOCH":16972,"BSTAR":-0.00017921,"MEAN_MOTION_DOT":-5.0e-7,"MEAN_MOTION_DDOT":0},{"OBJECT_NAME":"ONEWEB-0458","OBJECT_ID":"2022-012AC","EPOCH":"2025-08-19T02:50:53.222784","MEAN_MOTION":13.10373856,"ECCENTRICITY":0.0001904,"INCLINATION":87.8764,"RA_OF_ASC_NODE":96.5004,"ARG_OF_PERICENTER":81.6249,"MEAN_ANOMALY":278.5094,"EPHEMERIS_TYPE":0,"CLASSIFICATION_TYPE":"U","NORAD_CAT_ID":51648,"ELEMENT_SET_NO":999,"REV_AT_EPOCH":17104,"BSTAR":-0.0017475,"MEAN_MOTION_DOT":-5.97e-6,"MEAN_MOTION_DDOT":0},{"OBJECT_NAME":"ONEWEB-0461","OBJECT_ID":"2022-012AD","EPOCH":"2025-08-18T22:15:09.601344","MEAN_MOTION":13.17645438,"ECCENTRICITY":0.0001632,"INCLINATION":87.9024,"RA_OF_ASC_NODE":65.9874,"ARG_OF_PERICENTER":90.8875,"MEAN_ANOMALY":269.2444,"EPHEMERIS_TYPE":0,"CLASSIFICATION_TYPE":"U","NORAD_CAT_ID":51649,"ELEMENT_SET_NO":999,"REV_AT_EPOCH":17408,"BSTAR":8.1157e-6,"MEAN_MOTION_DOT":1.6e-7,"MEAN_MOTION_DDOT":0},{"OBJECT_NAME":"ONEWEB-0463","OBJECT_ID":"2022-012AE","EPOCH":"2025-08-18T21:48:26.337888","MEAN_MOTION":13.17648585,"ECCENTRICITY":0.0001805,"INCLINATION":87.9016,"RA_OF_ASC_NODE":66.0541,"ARG_OF_PERICENTER":88.0066,"MEAN_ANOMALY":272.1272,"EPHEMERIS_TYPE":0,"CLASSIFICATION_TYPE":"U","NORAD_CAT_ID":51650,"ELEMENT_SET_NO":999,"REV_AT_EPOCH":17386,"BSTAR":1.2071e-5,"MEAN_MOTION_DOT":1.8e-7,"MEAN_MOTION_DDOT":0},{"OBJECT_NAME":"ONEWEB-0464","OBJECT_ID":"2022-012AF","EPOCH":"2025-08-19T04:36:04.995936","MEAN_MOTION":13.10365062,"ECCENTRICITY":0.0001698,"INCLINATION":87.8771,"RA_OF_ASC_NODE":96.5229,"ARG_OF_PERICENTER":70.4816,"MEAN_ANOMALY":289.6495,"EPHEMERIS_TYPE":0,"CLASSIFICATION_TYPE":"U","NORAD_CAT_ID":51651,"ELEMENT_SET_NO":999,"REV_AT_EPOCH":17107,"BSTAR":-0.0017257,"MEAN_MOTION_DOT":-5.9e-6,"MEAN_MOTION_DDOT":0},{"OBJECT_NAME":"ONEWEB-0468","OBJECT_ID":"2022-012AG","EPOCH":"2025-08-19T02:55:39.936000","MEAN_MOTION":13.10374618,"ECCENTRICITY":0.0001785,"INCLINATION":87.8774,"RA_OF_ASC_NODE":96.529,"ARG_OF_PERICENTER":79.7153,"MEAN_ANOMALY":280.4175,"EPHEMERIS_TYPE":0,"CLASSIFICATION_TYPE":"U","NORAD_CAT_ID":51652,"ELEMENT_SET_NO":999,"REV_AT_EPOCH":17103,"BSTAR":-0.0016518,"MEAN_MOTION_DOT":-5.64e-6,"MEAN_MOTION_DDOT":0},{"OBJECT_NAME":"ONEWEB-0473","OBJECT_ID":"2022-012AH","EPOCH":"2025-08-19T04:24:06.445152","MEAN_MOTION":13.10371993,"ECCENTRICITY":0.0001833,"INCLINATION":87.877,"RA_OF_ASC_NODE":96.5194,"ARG_OF_PERICENTER":79.303,"MEAN_ANOMALY":280.8304,"EPHEMERIS_TYPE":0,"CLASSIFICATION_TYPE":"U","NORAD_CAT_ID":51653,"ELEMENT_SET_NO":999,"REV_AT_EPOCH":17105,"BSTAR":-0.0010579,"MEAN_MOTION_DOT":-3.57e-6,"MEAN_MOTION_DDOT":0},{"OBJECT_NAME":"ONEWEB-0474","OBJECT_ID":"2022-012AJ","EPOCH":"2025-08-19T04:12:10.780128","MEAN_MOTION":13.10370205,"ECCENTRICITY":0.0001874,"INCLINATION":87.8774,"RA_OF_ASC_NODE":96.4814,"ARG_OF_PERICENTER":74.8315,"MEAN_ANOMALY":285.3019,"EPHEMERIS_TYPE":0,"CLASSIFICATION_TYPE":"U","NORAD_CAT_ID":51654,"ELEMENT_SET_NO":999,"REV_AT_EPOCH":17103,"BSTAR":-2.6233e-5,"MEAN_MOTION_DOT":4.0e-8,"MEAN_MOTION_DDOT":0},{"OBJECT_NAME":"ONEWEB-0475","OBJECT_ID":"2022-012AK","EPOCH":"2025-08-18T22:05:27.076128","MEAN_MOTION":13.17648376,"ECCENTRICITY":0.0002452,"INCLINATION":87.902,"RA_OF_ASC_NODE":66.0332,"ARG_OF_PERICENTER":76.3487,"MEAN_ANOMALY":283.7918,"EPHEMERIS_TYPE":0,"CLASSIFICATION_TYPE":"U","NORAD_CAT_ID":51655,"ELEMENT_SET_NO":999,"REV_AT_EPOCH":17388,"BSTAR":0.00013753,"MEAN_MOTION_DOT":6.6e-7,"MEAN_MOTION_DDOT":0},{"OBJECT_NAME":"ONEWEB-0490","OBJECT_ID":"2022-138A","EPOCH":"2025-08-18T20:28:21.540576","MEAN_MOTION":13.19724628,"ECCENTRICITY":0.0001781,"INCLINATION":87.926,"RA_OF_ASC_NODE":5.0525,"ARG_OF_PERICENTER":90.4941,"MEAN_ANOMALY":269.6395,"EPHEMERIS_TYPE":0,"CLASSIFICATION_TYPE":"U","NORAD_CAT_ID":54113,"ELEMENT_SET_NO":999,"REV_AT_EPOCH":13695,"BSTAR":6.7656e-5,"MEAN_MOTION_DOT":4.0e-7,"MEAN_MOTION_DDOT":0},{"OBJECT_NAME":"ONEWEB-0492","OBJECT_ID":"2022-138B","EPOCH":"2025-08-18T21:04:44.752800","MEAN_MOTION":13.19726776,"ECCENTRICITY":0.0001624,"INCLINATION":87.9264,"RA_OF_ASC_NODE":5.0709,"ARG_OF_PERICENTER":93.9842,"MEAN_ANOMALY":266.1477,"EPHEMERIS_TYPE":0,"CLASSIFICATION_TYPE":"U","NORAD_CAT_ID":54114,"ELEMENT_SET_NO":999,"REV_AT_EPOCH":13696,"BSTAR":0.0001076,"MEAN_MOTION_DOT":5.6e-7,"MEAN_MOTION_DDOT":0}]
