ONEWEB-0446             
1 51640U 22012U   25230.87134156 -.00000134  00000+0 -42120-3 0  9991
2 51640  87.8769  96.5889 0001495  83.4907 276.6390 13.10371309169735
ONEWEB-0448             
1 51641U 22012V   25230.87629005 -.00000406  00000+0 -12008-2 0  9997
2 51641  87.8770  96.5875 0001795  81.0235 279.1096 13.10373244169702
ONEWEB-0449             
1 51642U 22012W   25231.18673749 -.00000508  00000+0 -14929-2 0  9994
2 51642  87.8766  96.4974 0002070  90.8869 269.2495 13.10371033171053
ONEWEB-0451             
1 51643U 22012X   25230.90694027  .00000090  00000+0  19819-3 0  9994
2 51643  87.9027  65.9773 0001900  91.7071 268.4278 13.17649742173851
ONEWEB-0452             
1 51644U 22012Y   25230.90527100  .00000173  00000+0  41134-3 0  9999
2 51644  87.9020  66.0418 0002059  89.6162 270.5205 13.17647100173867
ONEWEB-0456             
1 51646U 22012AA  25231.12033230 -.00000563  00000+0 -16491-2 0  9994
2 51646  87.8778  96.4691 0001729  73.9135 286.2182 13.10374877171077
ONEWEB-0457             
1 51647U 22012AB  25230.63897021 -.00000050  00000+0 -17921-3 0  9997
2 51647  87.8769  96.6233 0001706  94.4967 265.6355 13.10368061169728
ONEWEB-0458             
1 51648U 22012AC  25231.11867156 -.00000597  00000+0 -17475-2 0  9997
2 51648  87.8764  96.5004 0001904  81.6249 278.5094 13.10373856171049
ONEWEB-0461             
1 51649U 22012AD  25230.92719446  .00000016  00000+0  81157-5 0  9999
2 51649  87.9024  65.9874 0001632  90.8875 269.2444 13.17645438174088
ONEWEB-0463             
1 51650U 22012AE  25230.90863817  .00000018  00000+0  12071-4 0  9991
2 51650  87.9016  66.0541 0001805  88.0066 272.1272 13.17648585173860
ONEWEB-0464             
1 51651U 22012AF  25231.19172449 -.00000590  00000+0 -17257-2 0  9994
2 51651  87.8771  96.5229 0001698  70.4816 289.6495 13.10365062171077
ONEWEB-0468             
1 51652U 22012AG  25231.12199000 -.00000564  00000+0 -16518-2 0  9990
2 51652  87.8774  96.5290 0001785  79.7153 280.4175 13.10374618171039
ONEWEB-0473             
1 51653U 22012AH  25231.18340793 -.00000357  00000+0 -10579-2 0  9995
2 51653  87.8770  96.5194 0001833  79.3030 280.8304 13.10371993171056
ONEWEB-0474             
1 51654U 22012AJ  25231.17512477  .00000004  00000+0 -26233-4 0  9999
2 51654  87.8774  96.4814 0001874  74.8315 285.3019 13.10370205171036
ONEWEB-0475             
1 51655U 22012AK  25230.92045227  .00000066  00000+0  13753-3 0  9995
2 51655  87.9020  66.0332 0002452  76.3487 283.7918 13.17648376173889
ONEWEB-0490             
1 54113U 22138A   25230.85302709  .00000040  00000+0  67656-4 0  9993
2 54113  87.9260   5.0525 0001781  90.4941 269.6395 13.19724628136956
ONEWEB-0492             
1 54114U 22138B   25230.87829575  .00000056  00000+0  10760-3 0  9991
2 54114  87.9264   5.0709 0001624  93.9842 266.1477 13.19726776136969
